NORAD_CAT_ID,OBJECT_NAME,OBJECT_TYPE,EPOCH,MEAN_MOTION,ECCENTRICITY,INCLINATION,RA_OF_ASC_NODE,ARG_OF_PERICENTER,MEAN_ANOMALY,BSTAR,MEAN_MOTION_DOT,MEAN_MOTION_DDOT,TLE_LINE0,TLE_LINE1,TLE_LINE2,SEMIMAJOR_AXIS,PERIOD,APOGEE,PERIGEE,DECAYED
54012.0,STARLINK-5126,PAYLOAD,2022-12-13 06:00:00,15.49468438,0.0001751999999999,53.2171,115.1343,28.7654,349.3671,-0.017858,-0.00918863,0.0,0 STARLINK-5126,1 54012U 22125BA  22347.25001157 -.00918863  00000-0 -17858-1 0  9990,2 54012  53.2171 115.1343 0001752  28.7654 349.3671 15.49468438 11106,6796.417,92.935,419.473,417.091,0.0
54012.0,STARLINK-5126,PAYLOAD,2022-12-13 14:00:01,15.4881815,0.0001718,53.2173,113.5442,36.1023,42.0447,-0.01825,-0.0091775,0.0,0 STARLINK-5126,1 54012U 22125BA  22347.58334491 -.00917750  00000-0 -18250-1 0  9997,2 54012  53.2173 113.5442 0001718  36.1023  42.0447 15.48818150  1303,6798.319,92.974,421.352,419.016,0.0
54012.0,STARLINK-5126,PAYLOAD,2022-12-13 22:00:00,15.48166782,0.0001641999999999,53.2172,111.9545,41.2035,96.1772,-0.01865,-0.00916662,0.0,0 STARLINK-5126,1 54012U 22125BA  22347.91667824 -.00916662  00000-0 -18650-1 0  9998,2 54012  53.2172 111.9545 0001642  41.2035  96.1772 15.48166782  1302,6800.226,93.013,423.208,420.974,0.0
54012.0,STARLINK-5126,PAYLOAD,2022-12-14 02:00:01,15.47842529,0.0001705,53.2173,111.1593,32.5275,314.1768,-0.018919,-0.00919158,0.0,0 STARLINK-5126,1 54012U 22125BA  22348.08334491 -.00919158  00000-0 -18919-1 0  9999,2 54012  53.2173 111.1593 0001705  32.5275 314.1768 15.47842529 11237,6801.176,93.033,424.2,421.881,0.0
54012.0,STARLINK-5126,PAYLOAD,2022-12-14 14:00:01,15.468740099999998,0.0001662,53.2172,108.7803,42.2051,211.2911,-0.019804,-0.00929245,0.0,0 STARLINK-5126,1 54012U 22125BA  22348.58334491 -.00929245  00000-0 -19804-1 0  9996,2 54012  53.2172 108.7803 0001662  42.2051 211.2911 15.46874010  1307,6804.014,93.091,427.01,424.74800000000016,0.0
54012.0,STARLINK-5126,PAYLOAD,2022-12-14 22:00:00,15.46220991,0.0001803,53.2167,107.1955,30.7326,279.6516,-0.020212,-0.00927315,0.0,0 STARLINK-5126,1 54012U 22125BA  22348.91667824 -.00927315  00000-0 -20212-1 0  9993,2 54012  53.2167 107.1955 0001803  30.7326 279.6516 15.46220991  1308,6805.93,93.13,429.022,426.568,0.0
54012.0,STARLINK-5126,PAYLOAD,2022-12-15 06:00:00,15.45560664,0.0001735,53.2173,105.6093,30.9798,335.5146,-0.02035,-0.00913718,0.0,0 STARLINK-5126,1 54012U 22125BA  22349.25001157 -.00913718  00000-0 -20350-1 0  9997,2 54012  53.2173 105.6093 0001735  30.9798 335.5146 15.45560664 11417,6807.868,93.17,430.914,428.552,0.0
54012.0,STARLINK-5126,PAYLOAD,2022-12-15 14:00:01,15.44908709,0.0006619,53.2175,104.0293,272.561,149.2551,-0.020769,-0.009134,0.0,0 STARLINK-5126,1 54012U 22125BA  22349.58334491 -.00913400  00000-0 -20769-1 0  9995,2 54012  53.2175 104.0293 0006619 272.5610 149.2551 15.44908709 11467,6809.783,93.209,436.156,427.141,0.0
54012.0,STARLINK-5126,PAYLOAD,2022-12-15 22:00:00,15.44265283,0.0006998999999999,53.2172,102.4485,270.9379,205.4152,-0.021506,-0.00924386,0.0,0 STARLINK-5126,1 54012U 22125BA  22349.91667824 -.00924386  00000-0 -21506-1 0  9996,2 54012  53.2172 102.4485 0006999 270.9379 205.4152 15.44265283  1301,6811.675,93.248,438.307,428.772,0.0
54012.0,STARLINK-5126,PAYLOAD,2022-12-16 06:00:00,15.43609903,0.000153,53.2174,100.8682,51.7876,118.3256,-0.02184,-0.00916895,0.0,0 STARLINK-5126,1 54012U 22125BA  22350.25001157 -.00916895  00000-0 -21840-1 0  9993,2 54012  53.2174 100.8682 0001530  51.7876 118.3256 15.43609903 11574,6813.603,93.288,436.51,434.425,0.0
54012.0,STARLINK-5126,PAYLOAD,2022-12-16 14:00:01,15.42958708,0.000147,53.2171,99.2934,57.9481,165.139,-0.022303,-0.00915927,0.0,0 STARLINK-5126,1 54012U 22125BA  22350.58334491 -.00915927  00000-0 -22303-1 0  9999,2 54012  53.2171  99.2934 0001470  57.9481 165.1390 15.42958708  1303,6815.52,93.327,438.386,436.383,0.0
54012.0,STARLINK-5126,PAYLOAD,2022-12-16 22:00:00,15.42308699,0.0001349,53.2172,97.7166,58.7596,216.5211,-0.022855,-0.00917993,0.0,0 STARLINK-5126,1 54012U 22125BA  22350.91667824 -.00917993  00000-0 -22855-1 0  9992,2 54012  53.2172  97.7166 0001349  58.7596 216.5211 15.42308699  1306,6817.434,93.367,440.219,438.38,0.0
54012.0,STARLINK-5126,PAYLOAD,2022-12-17 06:00:00,15.41654291,0.0001248,53.2173,96.141,61.7738,264.9196,-0.023201,-0.00912084,0.0,0 STARLINK-5126,1 54012U 22125BA  22351.25001157 -.00912084  00000-0 -23201-1 0  9993,2 54012  53.2173  96.1410 0001248  61.7738 264.9196 15.41654291 11729,6819.364000000001,93.406,442.08,440.377,0.0
54012.0,STARLINK-5126,PAYLOAD,2022-12-17 14:00:01,15.41013068,0.0001439,53.217,94.5707,50.8044,326.576,-0.024116,-0.00926659,0.0,0 STARLINK-5126,1 54012U 22125BA  22351.58335648 -.00926659  00000-0 -24116-1 0  9993,2 54012  53.2170  94.5707 0001439  50.8044 326.5760 15.41013068  1304,6821.255,93.445,444.102,442.139,0.0
54012.0,STARLINK-5126,PAYLOAD,2022-12-17 22:00:00,15.40353202,0.0001641999999999,53.2171,92.9988,37.7862,29.3809,-0.024271,-0.00913501,0.0,0 STARLINK-5126,1 54012U 22125BA  22351.91667824 -.00913501  00000-0 -24271-1 0  9998,2 54012  53.2171  92.9988 0001642  37.7862  29.3809 15.40353202  1304,6823.203,93.485,446.18800000000016,443.948,0.0
54012.0,STARLINK-5126,PAYLOAD,2022-12-18 06:00:02,15.39702734,0.0001663,53.2174,91.4277,42.4717,73.824,-0.024814,-0.00913946,0.0,0 STARLINK-5126,1 54012U 22125BA  22352.25002315 -.00913946  00000-0 -24814-1 0  9990,2 54012  53.2174  91.4277 0001663  42.4717  73.8240 15.39702734 11880,6825.125,93.525,448.125,445.855,0.0
54012.0,STARLINK-5126,PAYLOAD,2022-12-18 14:00:01,15.39051583,0.0001785,53.2172,89.8617,42.4847,122.0274,-0.025349,-0.00913805,0.0,0 STARLINK-5126,1 54012U 22125BA  22352.58334491 -.00913805  00000-0 -25349-1 0  9997,2 54012  53.2172  89.8617 0001785  42.4847 122.0274 15.39051583  1305,6827.05,93.564,450.133,447.696,0.0
54012.0,STARLINK-5126,PAYLOAD,2022-12-18 22:00:00,15.3840158,0.0001826,53.2173,88.2945,37.9533,174.0584,-0.025949,-0.00915492,0.0,0 STARLINK-5126,1 54012U 22125BA  22352.91667824 -.00915492  00000-0 -25949-1 0  9993,2 54012  53.2173  88.2945 0001826  37.9533 174.0584 15.38401580  1306,6828.972,93.604,452.084,449.591,0.0
54012.0,STARLINK-5126,PAYLOAD,2022-12-19 04:00:00,15.37912822,0.0001815,53.2171,87.1195,37.628,119.4959,-0.026357,-0.0091513,0.0,0 STARLINK-5126,1 54012U 22125BA  22353.16667824 -.00915130  00000-0 -26357-1 0  9994,2 54012  53.2171  87.1195 0001815  37.6280 119.4959 15.37912822 12028,6830.419,93.633,453.524,451.045,0.0
54012.0,STARLINK-5126,PAYLOAD,2022-12-19 12:00:00,15.37259214,0.0001887,53.2173,85.5574,38.9761,164.278,-0.026772,-0.00910334,0.0,0 STARLINK-5126,1 54012U 22125BA  22353.50001157 -.00910334  00000-0 -26772-1 0  9995,2 54012  53.2173  85.5574 0001887  38.9761 164.2780 15.37259214  1308,6832.355,93.673,455.509,452.931,0.0
54012.0,STARLINK-5126,PAYLOAD,2022-12-19 22:00:00,15.36448876,0.0001695,53.2173,83.6043,34.4436,315.3726,-0.027673,-0.00915965,0.0,0 STARLINK-5126,1 54012U 22125BA  22353.91667824 -.00915965  00000-0 -27673-1 0  9995,2 54012  53.2173  83.6043 0001695  34.4436 315.3726 15.36448876  1307,6834.757,93.723,457.781,455.464,0.0
54012.0,STARLINK-5126,PAYLOAD,2022-12-20 06:00:00,15.35797085,0.0001843,53.217,82.0437,33.9321,0.2542,-0.028174,-0.00913347,0.0,0 STARLINK-5126,1 54012U 22125BA  22354.25001157 -.00913347  00000-0 -28174-1 0  9993,2 54012  53.2170  82.0437 0001843  33.9321   0.2542 15.35797085 12188,6836.691,93.762,459.816,457.296,0.0
54012.0,STARLINK-5126,PAYLOAD,2022-12-20 14:00:01,15.35150551,0.0001757,53.2175,80.4867,40.4346,37.3372,-0.029029,-0.00920966,0.0,0 STARLINK-5126,1 54012U 22125BA  22354.58334491 -.00920966  00000-0 -29029-1 0  9994,2 54012  53.2175  80.4867 0001757  40.4346  37.3372 15.35150551  1301,6838.61,93.802,461.677,459.274,0.0
54012.0,STARLINK-5126,PAYLOAD,2022-12-21 06:00:00,15.33842969,0.0001896,53.2177,77.3717,38.2805,124.3238,-0.029927,-0.00911396,0.0,0 STARLINK-5126,1 54012U 22125BA  22355.25001157 -.00911396  00000-0 -29927-1 0  9993,2 54012  53.2177  77.3717 0001896  38.2805 124.3238 15.33842969 12344,6842.496,93.882,465.659,463.064,0.0
54012.0,STARLINK-5126,PAYLOAD,2022-12-21 14:00:01,15.33191468,0.0001964,53.2176,75.8194,37.5429,166.3018,-0.030537,-0.00910947,0.0,0 STARLINK-5126,1 54012U 22125BA  22355.58334491 -.00910947  00000-0 -30537-1 0  9999,2 54012  53.2176  75.8194 0001964  37.5429 166.3018 15.33191468  1302,6844.435,93.922,467.644,464.955,0.0
54012.0,STARLINK-5126,PAYLOAD,2022-12-22 06:00:00,15.31889957,0.000143,53.2177,72.714,56.5935,227.3872,-0.0318209999999999,-0.00910873,0.0,0 STARLINK-5126,1 54012U 22125BA  22356.25001157 -.00910873  00000-0 -31821-1 0  9999,2 54012  53.2177  72.7140 0001430  56.5935 227.3872 15.31889957 12494,6848.311,94.002,471.155,469.196,0.0
54012.0,STARLINK-5126,PAYLOAD,2022-12-22 14:00:01,15.3122952,0.0001811,53.2176,71.1664,270.0957,52.7818,-0.03191,-0.00896028,0.0,0 STARLINK-5126,1 54012U 22125BA  22356.58334491 -.00896028  00000-0 -31910-1 0  9999,2 54012  53.2176  71.1664 0001811 270.0957  52.7818 15.31229520  1309,6850.28,94.042,473.385,470.904,0.0
54012.0,STARLINK-5126,PAYLOAD,2022-12-22 22:00:00,15.3058515,2.7e-05,53.2175,69.617,93.9403,267.0483,-0.032996,-0.00906796,0.0,0 STARLINK-5126,1 54012U 22125BA  22356.91667824 -.00906796  00000-0 -32996-1 0  9994,2 54012  53.2175  69.6170 0000270  93.9403 267.0483 15.30585150  1311,6852.2019999999975,94.082,474.252,473.882,0.0
54012.0,STARLINK-5126,PAYLOAD,2022-12-23 06:00:00,15.2993654,0.0001541999999999,53.2177,68.0703,43.5198,354.7972,-0.03382,-0.00910714,0.0,0 STARLINK-5126,1 54012U 22125BA  22357.25001157 -.00910714  00000-0 -33820-1 0  9995,2 54012  53.2177  68.0703 0001542  43.5198 354.7972 15.29936540 12649,6854.139,94.122,477.061,474.947,0.0
